*******************************************************************************
JPL/HORIZONS                 369 Aeria (A893 NA)           2020-Jun-22 08:56:44
Rec #:     369 (+COV) Soln.date: 2020-Feb-22_15:25:25   # obs: 2404 (1893-2020)
 
IAU76/J2000 helio. ecliptic osc. elements (au, days, deg., period=Julian yrs):
 
  EPOCH=  2455951.5 ! 2012-Jan-25.00 (TDB)         Residual RMS= .36481
   EC= .0985519659343516   QR= 2.387038633338053   TP= 2455526.5022019362
   OM= 94.29267965712492   W=  268.5999249893635   IN= 12.70868877403305
   A= 2.648004702580799    MA= 97.21037664114273   ADIST= 2.908970771823544
   PER= 4.3091             N= .228731477           ANGMOM= .027856174
   DAN= 2.62862            DDN= 2.61599            L= 2.8574678
   B= -12.7048313          MOID= 1.42346001        TP= 2010-Nov-26.0022019362
 
Asteroid physical parameters (km, seconds, rotational period in hours):
   GM= n.a.                RAD= 36.8835            ROTPER= 4.778
   H= 8.6                  G= .150                 B-V= .711
                           ALBEDO= .127            STYP= M
 
ASTEROID comments: 
1: soln ref.= JPL#84, OCC=0
2: source=ORB
*******************************************************************************
 
 
*******************************************************************************
Ephemeris / WWW_USER Mon Jun 22 08:56:44 2020 Pasadena, USA      / Horizons
*******************************************************************************
Target body name: 369 Aeria (A893 NA)             {source: JPL#84}
Center body name: Solar System Barycenter (0)     {source: DE431}
Center-site name: BODY CENTER
*******************************************************************************
Start time      : A.D. 1969-Jun-28 00:00:00.0000 TDB
Stop  time      : A.D. 2071-May-04 00:00:00.0000 TDB
Step-size       : 7200 minutes
*******************************************************************************
Center geodetic : 0.00000000,0.00000000,0.0000000 {E-lon(deg),Lat(deg),Alt(km)}
Center cylindric: 0.00000000,0.00000000,0.0000000 {E-lon(deg),Dxy(km),Dz(km)}
Center radii    : (undefined)                                                  
Small perturbers: Yes                             {source: SB431-N16}
Output units    : AU-D
Output type     : GEOMETRIC cartesian states
Output format   : 2 (position and velocity)
Reference frame : Ecliptic of J2000.0
*******************************************************************************
Initial IAU76/J2000 heliocentric ecliptic osculating elements (au, days, deg.):
  EPOCH=  2455951.5 ! 2012-Jan-25.00 (TDB)         Residual RMS= .36481        
   EC= .0985519659343516   QR= 2.387038633338053   TP= 2455526.5022019362      
   OM= 94.29267965712492   W=  268.5999249893635   IN= 12.70868877403305       
  Equivalent ICRF heliocentric equatorial cartesian coordinates (au, au/d):
   X=-9.535143520623390E-01  Y= 2.249248402902455E+00  Z= 1.162411554724353E+00
  VX=-9.717684148037914E-03 VY=-3.415142157121627E-03 VZ= 9.519637530810876E-04
Asteroid physical parameters (km, seconds, rotational period in hours):        
   GM= n.a.                RAD= 36.8835            ROTPER= 4.778               
   H= 8.6                  G= .150                 B-V= .711                   
                           ALBEDO= .127            STYP= M                     
*******************************************************************************
            JDTDB,            Calendar Date (TDB),        delta-T,                      X,                      Y,                      Z,                     VX,                     VY,                     VZ,
******************************************************************************************************************************************************************************************************************
$$SOE
2458740.500000000, A.D. 2019-Sep-14 00:00:00.0000,      69.182427,  2.190989717612069E+00,  8.454450687487240E-01, -5.075225404444377E-01, -3.723490701360556E-03,  1.097118815664581E-02,  6.567412098865659E-04,
2458745.500000000, A.D. 2019-Sep-19 00:00:00.0000,      69.182378,  2.171789183841470E+00,  9.000727500539579E-01, -5.041038558380492E-01, -3.956308077712545E-03,  1.087894342581909E-02,  7.106547033837116E-04,
2458750.500000000, A.D. 2019-Sep-24 00:00:00.0000,      69.182343,  2.151430907671467E+00,  9.542251653047207E-01, -5.004168016875737E-01, -4.186563070894799E-03,  1.078109623686725E-02,  7.640832547236037E-04,
2458755.500000000, A.D. 2019-Sep-29 00:00:00.0000,      69.182321,  2.129928066856659E+00,  1.007874523773343E+00, -4.964638886839935E-01, -4.414109954395580E-03,  1.067773601520852E-02,  8.169925956456542E-04,
2458760.500000000, A.D. 2019-Oct-04 00:00:00.0000,      69.182312,  2.107294558500819E+00,  1.060993493702489E+00, -4.922477969663221E-01, -4.638806744389061E-03,  1.056895689121857E-02,  8.693492223202183E-04,
2458765.500000000, A.D. 2019-Oct-09 00:00:00.0000,      69.182313,  2.083544979913058E+00,  1.113555225338043E+00, -4.877713721945861E-01, -4.860515369972061E-03,  1.045485750213632E-02,  9.211204368988227E-04,
2458770.500000000, A.D. 2019-Oct-14 00:00:00.0000,      69.182325,  2.058694608641917E+00,  1.165533372952189E+00, -4.830376214210219E-01, -5.079101831716192E-03,  1.033554078637016E-02,  9.722743866698197E-04,
2458775.500000000, A.D. 2019-Oct-19 00:00:00.0000,      69.182351,  2.032759381746359E+00,  1.216902115820776E+00, -4.780497087715718E-01, -5.294436348321989E-03,  1.021111377105739E-02,  1.022780100776755E-03,
2458780.500000000, A.D. 2019-Oct-24 00:00:00.0000,      69.182389,  2.005755874363592E+00,  1.267636178123532E+00, -4.728109509499923E-01, -5.506393491209453E-03,  1.008168735380054E-02,  1.072607524442165E-03,
2458785.500000000, A.D. 2019-Oct-29 00:00:00.0000,      69.182441,  1.977701277634442E+00,  1.317710847740468E+00, -4.673248125772739E-01, -5.714852306872707E-03,  9.947376079583284E-03,  1.121727550597993E-03,
2458790.500000000, A.D. 2019-Nov-03 00:00:00.0000,      69.182505,  1.948613376048051E+00,  1.367101993922949E+00, -4.615949013797094E-01, -5.919696426741360E-03,  9.808297913881821E-03,  1.170112048765068E-03,
2458795.500000000, A.D. 2019-Nov-08 00:00:00.0000,      69.182579,  1.918510524269162E+00,  1.415786083822596E+00, -4.556249632398081E-01, -6.120814164250745E-03,  9.664574012780414E-03,  1.217733891016605E-03,
2458800.500000000, A.D. 2019-Nov-13 00:00:00.0000,      69.182662,  1.887411623512075E+00,  1.463740197864053E+00, -4.494188771247317E-01, -6.318098599180569E-03,  9.516328490439359E-03,  1.264566975033739E-03,
2458805.500000000, A.D. 2019-Nov-18 00:00:00.0000,      69.182755,  1.855336097522793E+00,  1.510942043949340E+00, -4.429806499060544E-01, -6.511447650235608E-03,  9.363688184462260E-03,  1.310586244577290E-03,
2458810.500000000, A.D. 2019-Nov-23 00:00:00.0000,      69.182859,  1.822303868226708E+00,  1.557369970488134E+00, -4.363144110836327E-01, -6.700764136070414E-03,  9.206782421362473E-03,  1.355767707270287E-03,
2458815.500000000, A.D. 2019-Nov-28 00:00:00.0000,      69.182974,  1.788335331104022E+00,  1.603002978259709E+00, -4.294244074289266E-01, -6.885955822830879E-03,  9.045742783782212E-03,  1.400088448933271E-03,
2458820.500000000, A.D. 2019-Dec-03 00:00:00.0000,      69.183096,  1.753451330362653E+00,  1.647820731113673E+00, -4.223149975653766E-01, -7.066935457842776E-03,  8.880702878590087E-03,  1.443526644540956E-03,
2458825.500000000, A.D. 2019-Dec-08 00:00:00.0000,      69.183223,  1.717673133973575E+00,  1.691803565512479E+00, -4.149906465009066E-01, -7.243620791215844E-03,  8.711798105627371E-03,  1.486061566499457E-03,
2458830.500000000, A.D. 2019-Dec-13 00:00:00.0000,      69.183355,  1.681022408626333E+00,  1.734932498921772E+00, -4.074559201252225E-01, -7.415934586207196E-03,  8.539165428316292E-03,  1.527673590447006E-03,
2458835.500000000, A.D. 2019-Dec-18 00:00:00.0000,      69.183492,  1.643521194660695E+00,  1.777189237060743E+00, -3.997154796844134E-01, -7.583804618409794E-03,  8.362943147191135E-03,  1.568344198526749E-03,
2458840.500000000, A.D. 2019-Dec-23 00:00:00.0000,      69.183635,  1.605191881029960E+00,  1.818556180028917E+00, -3.917740762454904E-01, -7.747163663955800E-03,  8.183270677039656E-03,  1.608055980147523E-03,
2458845.500000000, A.D. 2019-Dec-28 00:00:00.0000,      69.183782,  1.566057180349935E+00,  1.859016427328872E+00, -3.836365451632514E-01, -7.905949477113615E-03,  8.000288328227781E-03,  1.646792630308271E-03,
2458850.500000000, A.D. 2020-Jan-02 00:00:00.0000,      69.183930,  1.526140104085552E+00,  1.898553781807192E+00, -3.753078005614303E-01, -8.060104757712783E-03,  7.814137092756523E-03,  1.684538945573428E-03,
2458855.500000000, A.D. 2020-Jan-07 00:00:00.0000,      69.184077,  1.485463937924870E+00,  1.937152752538603E+00, -3.667928298396611E-01, -8.209577108830362E-03,  7.624958435556792E-03,  1.721280817788132E-03,
2458860.500000000, A.D. 2020-Jan-12 00:00:00.0000,      69.184222,  1.444052217388108E+00,  1.974798556680571E+00, -3.580966882173086E-01, -8.354318985170790E-03,  7.432894091445836E-03,  1.757005225632944E-03,
2458865.500000000, A.D. 2020-Jan-17 00:00:00.0000,      69.184366,  1.401928703717096E+00,  2.011477120327536E+00, -3.492244933246822E-01, -8.494287632593309E-03,  7.238085868059724E-03,  1.791700224140089E-03,
2458870.500000000, A.D. 2020-Jan-22 00:00:00.0000,      69.184509,  1.359117360088173E+00,  2.047175078395172E+00, -3.401814198514512E-01, -8.629445019305458E-03,  7.040675454962346E-03,  1.825354932323943E-03,
2458875.500000000, A.D. 2020-Jan-27 00:00:00.0000,      69.184648,  1.315642328188650E+00,  2.081879773565921E+00, -3.309726942612528E-01, -8.759757759356083E-03,  6.840804239071514E-03,  1.857959519103724E-03,
